[{"OBJECT_NAME":"ONEWEB-0311","OBJECT_ID":"2021-075Y","EPOCH":"2025-07-28T16:24:25.038432","MEAN_MOTION":13.17648719,"ECCENTRICITY":0.0001492,"INCLINATION":87.9032,"RA_OF_ASC_NODE":70.2473,"ARG_OF_PERICENTER":93.3667,"MEAN_ANOMALY":266.7635,"EPHEMERIS_TYPE":0,"CLASSIFICATION_TYPE":"U","NORAD_CAT_ID":49097,"ELEMENT_SET_NO":999,"REV_AT_EPOCH":19202,"BSTAR":0.00036529,"MEAN_MOTION_DOT":1.55e-6,"MEAN_MOTION_DDOT":0},{"OBJECT_NAME":"ONEWEB-0312","OBJECT_ID":"2021-075Z","EPOCH":"2025-07-28T14:56:57.685632","MEAN_MOTION":13.1764924,"ECCENTRICITY":0.0001392,"INCLINATION":87.9034,"RA_OF_ASC_NODE":70.2906,"ARG_OF_PERICENTER":80.8683,"MEAN_ANOMALY":279.2606,"EPHEMERIS_TYPE":0,"CLASSIFICATION_TYPE":"U","NORAD_CAT_ID":49098,"ELEMENT_SET_NO":999,"REV_AT_EPOCH":19099,"BSTAR":6.375e-5,"MEAN_MOTION_DOT":3.8e-7,"MEAN_MOTION_DDOT":0},{"OBJECT_NAME":"ONEWEB-0313","OBJECT_ID":"2021-075AA","EPOCH":"2025-07-28T15:04:02.240544","MEAN_MOTION":13.17650316,"ECCENTRICITY":0.000177,"INCLINATION":87.9029,"RA_OF_ASC_NODE":70.3042,"ARG_OF_PERICENTER":87.0477,"MEAN_ANOMALY":273.0857,"EPHEMERIS_TYPE":0,"CLASSIFICATION_TYPE":"U","NORAD_CAT_ID":49099,"ELEMENT_SET_NO":999,"REV_AT_EPOCH":19098,"BSTAR":0.00010038,"MEAN_MOTION_DOT":5.2e-7,"MEAN_MOTION_DDOT":0},{"OBJECT_NAME":"ONEWEB-0314","OBJECT_ID":"2021-075AB","EPOCH":"2025-07-28T14:15:39.438144","MEAN_MOTION":13.17649278,"ECCENTRICITY":0.000139,"INCLINATION":87.9037,"RA_OF_ASC_NODE":70.2434,"ARG_OF_PERICENTER":83.7096,"MEAN_ANOMALY":276.4194,"EPHEMERIS_TYPE":0,"CLASSIFICATION_TYPE":"U","NORAD_CAT_ID":49100,"ELEMENT_SET_NO":999,"REV_AT_EPOCH":19095,"BSTAR":9.8873e-5,"MEAN_MOTION_DOT":5.1e-7,"MEAN_MOTION_DDOT":0},{"OBJECT_NAME":"ONEWEB-0315","OBJECT_ID":"2021-075AC","EPOCH":"2025-07-28T13:58:58.976256","MEAN_MOTION":13.12442012,"ECCENTRICITY":0.0001672,"INCLINATION":87.8852,"RA_OF_ASC_NODE":54.9788,"ARG_OF_PERICENTER":98.7379,"MEAN_ANOMALY":261.3939,"EPHEMERIS_TYPE":0,"CLASSIFICATION_TYPE":"U","NORAD_CAT_ID":49101,"ELEMENT_SET_NO":999,"REV_AT_EPOCH":19272,"BSTAR":-0.00018131,"MEAN_MOTION_DOT":-5.2e-7,"MEAN_MOTION_DDOT":0},{"OBJECT_NAME":"ONEWEB-0316","OBJECT_ID":"2021-075AD","EPOCH":"2025-07-28T13:05:39.484032","MEAN_MOTION":13.18686614,"ECCENTRICITY":0.0001806,"INCLINATION":87.9123,"RA_OF_ASC_NODE":39.7583,"ARG_OF_PERICENTER":96.0702,"MEAN_ANOMALY":264.0635,"EPHEMERIS_TYPE":0,"CLASSIFICATION_TYPE":"U","NORAD_CAT_ID":49102,"ELEMENT_SET_NO":999,"REV_AT_EPOCH":19455,"BSTAR":0.00013344,"MEAN_MOTION_DOT":6.6e-7,"MEAN_MOTION_DDOT":0},{"OBJECT_NAME":"ONEWEB-0317","OBJECT_ID":"2021-075AE","EPOCH":"2025-07-28T13:49:38.473536","MEAN_MOTION":13.12442204,"ECCENTRICITY":0.0002008,"INCLINATION":87.8849,"RA_OF_ASC_NODE":54.9953,"ARG_OF_PERICENTER":61.5999,"MEAN_ANOMALY":298.5332,"EPHEMERIS_TYPE":0,"CLASSIFICATION_TYPE":"U","NORAD_CAT_ID":49103,"ELEMENT_SET_NO":999,"REV_AT_EPOCH":19274,"BSTAR":0.00043355,"MEAN_MOTION_DOT":1.69e-6,"MEAN_MOTION_DDOT":0},{"OBJECT_NAME":"ONEWEB-0318","OBJECT_ID":"2021-075AF","EPOCH":"2025-07-29T01:45:44.423712","MEAN_MOTION":13.1868689,"ECCENTRICITY":0.000174,"INCLINATION":87.9125,"RA_OF_ASC_NODE":39.639,"ARG_OF_PERICENTER":96.9573,"MEAN_ANOMALY":263.1757,"EPHEMERIS_TYPE":0,"CLASSIFICATION_TYPE":"U","NORAD_CAT_ID":49104,"ELEMENT_SET_NO":999,"REV_AT_EPOCH":19558,"BSTAR":-0.00017173,"MEAN_MOTION_DOT":-5.5e-7,"MEAN_MOTION_DDOT":0},{"OBJECT_NAME":"ONEWEB-0319","OBJECT_ID":"2021-075AG","EPOCH":"2025-07-28T16:26:51.612576","MEAN_MOTION":13.17650269,"ECCENTRICITY":0.0001499,"INCLINATION":87.9036,"RA_OF_ASC_NODE":70.2717,"ARG_OF_PERICENTER":95.5732,"MEAN_ANOMALY":264.557,"EPHEMERIS_TYPE":0,"CLASSIFICATION_TYPE":"U","NORAD_CAT_ID":49105,"ELEMENT_SET_NO":999,"REV_AT_EPOCH":19199,"BSTAR":0.00019415,"MEAN_MOTION_DOT":8.8e-7,"MEAN_MOTION_DDOT":0},{"OBJECT_NAME":"ONEWEB-0323","OBJECT_ID":"2021-075AH","EPOCH":"2025-07-28T20:54:45.072864","MEAN_MOTION":13.12441597,"ECCENTRICITY":0.0001366,"INCLINATION":87.8848,"RA_OF_ASC_NODE":54.9221,"ARG_OF_PERICENTER":108.7867,"MEAN_ANOMALY":251.3409,"EPHEMERIS_TYPE":0,"CLASSIFICATION_TYPE":"U","NORAD_CAT_ID":49106,"ELEMENT_SET_NO":999,"REV_AT_EPOCH":19314,"BSTAR":0.0010928,"MEAN_MOTION_DOT":4.06e-6,"MEAN_MOTION_DDOT":0},{"OBJECT_NAME":"ONEWEB-0329","OBJECT_ID":"2021-075AJ","EPOCH":"2025-07-28T14:49:38.908416","MEAN_MOTION":13.17649421,"ECCENTRICITY":0.0001531,"INCLINATION":87.9033,"RA_OF_ASC_NODE":70.2899,"ARG_OF_PERICENTER":86.8459,"MEAN_ANOMALY":273.2848,"EPHEMERIS_TYPE":0,"CLASSIFICATION_TYPE":"U","NORAD_CAT_ID":49107,"ELEMENT_SET_NO":999,"REV_AT_EPOCH":19097,"BSTAR":0.00010241,"MEAN_MOTION_DOT":5.3e-7,"MEAN_MOTION_DDOT":0},{"OBJECT_NAME":"ONEWEB-0330","OBJECT_ID":"2021-075AK","EPOCH":"2025-07-28T20:19:25.559040","MEAN_MOTION":13.17726495,"ECCENTRICITY":0.0001511,"INCLINATION":87.903,"RA_OF_ASC_NODE":70.2465,"ARG_OF_PERICENTER":78.4287,"MEAN_ANOMALY":281.7014,"EPHEMERIS_TYPE":0,"CLASSIFICATION_TYPE":"U","NORAD_CAT_ID":49108,"ELEMENT_SET_NO":999,"REV_AT_EPOCH":19203,"BSTAR":-8.5769e-6,"MEAN_MOTION_DOT":1.0e-7,"MEAN_MOTION_DDOT":0},{"OBJECT_NAME":"ONEWEB-0292","OBJECT_ID":"2021-083A","EPOCH":"2025-07-28T11:41:13.477056","MEAN_MOTION":13.1346885,"ECCENTRICITY":0.0001751,"INCLINATION":87.8966,"RA_OF_ASC_NODE":24.5746,"ARG_OF_PERICENTER":97.0681,"MEAN_ANOMALY":263.0647,"EPHEMERIS_TYPE":0,"CLASSIFICATION_TYPE":"U","NORAD_CAT_ID":49186,"ELEMENT_SET_NO":999,"REV_AT_EPOCH":18843,"BSTAR":0.00073912,"MEAN_MOTION_DOT":2.83e-6,"MEAN_MOTION_DDOT":0},{"OBJECT_NAME":"ONEWEB-0303","OBJECT_ID":"2021-083B","EPOCH":"2025-07-29T01:40:57.928224","MEAN_MOTION":13.18684602,"ECCENTRICITY":0.0001725,"INCLINATION":87.9124,"RA_OF_ASC_NODE":39.6405,"ARG_OF_PERICENTER":94.9076,"MEAN_ANOMALY":265.2253,"EPHEMERIS_TYPE":0,"CLASSIFICATION_TYPE":"U","NORAD_CAT_ID":49187,"ELEMENT_SET_NO":999,"REV_AT_EPOCH":18867,"BSTAR":-0.0001313,"MEAN_MOTION_DOT":-3.9e-7,"MEAN_MOTION_DDOT":0},{"OBJECT_NAME":"ONEWEB-0306","OBJECT_ID":"2021-083C","EPOCH":"2025-07-28T18:09:39.918528","MEAN_MOTION":13.18684888,"ECCENTRICITY":0.0001897,"INCLINATION":87.9125,"RA_OF_ASC_NODE":39.6884,"ARG_OF_PERICENTER":82.8024,"MEAN_ANOMALY":277.3323,"EPHEMERIS_TYPE":0,"CLASSIFICATION_TYPE":"U","NORAD_CAT_ID":49188,"ELEMENT_SET_NO":999,"REV_AT_EPOCH":18867,"BSTAR":5.8345e-5,"MEAN_MOTION_DOT":3.6e-7,"MEAN_MOTION_DDOT":0},{"OBJECT_NAME":"ONEWEB-0307","OBJECT_ID":"2021-083D","EPOCH":"2025-07-28T13:22:24.512160","MEAN_MOTION":13.13466155,"ECCENTRICITY":0.0001698,"INCLINATION":87.8952,"RA_OF_ASC_NODE":24.5641,"ARG_OF_PERICENTER":80.6266,"MEAN_ANOMALY":279.5055,"EPHEMERIS_TYPE":0,"CLASSIFICATION_TYPE":"U","NORAD_CAT_ID":49189,"ELEMENT_SET_NO":999,"REV_AT_EPOCH":18844,"BSTAR":0.001298,"MEAN_MOTION_DOT":4.87e-6,"MEAN_MOTION_DDOT":0},{"OBJECT_NAME":"ONEWEB-0320","OBJECT_ID":"2021-083E","EPOCH":"2025-07-28T18:19:10.501536","MEAN_MOTION":13.18686202,"ECCENTRICITY":0.0001777,"INCLINATION":87.9123,"RA_OF_ASC_NODE":39.7158,"ARG_OF_PERICENTER":89.3793,"MEAN_ANOMALY":270.7543,"EPHEMERIS_TYPE":0,"CLASSIFICATION_TYPE":"U","NORAD_CAT_ID":49190,"ELEMENT_SET_NO":999,"REV_AT_EPOCH":18863,"BSTAR":-2.2482e-5,"MEAN_MOTION_DOT":4.0e-8,"MEAN_MOTION_DDOT":0}]
